0 FENGYUN 1C DEB
1 31300U 99025BPJ 13281.32553240  .00000980  00000-0  68293-3 0   327
2 31300 099.5663 049.0940 0068906 007.0500 022.2372 14.00178537337708
0 FENGYUN 1C DEB
1 31300U 99025BPJ 13283.32609766  .00001041  00000-0  72306-3 0   334
2 31300 099.5663 051.1858 0068849 001.4817 026.5236 14.00185867337985
0 FENGYUN 1C DEB
1 31300U 99025BPJ 13285.85162162  .00001064  00000-0  73824-3 0   340
2 31300 099.5664 053.8264 0068779 354.4309 157.0654 14.00191025338332
0 FENGYUN 1C DEB
1 31300U 99025BPJ 13288.33362749  .00001710  00000-0  11667-2 0   354
2 31300 099.5670 056.4221 0068793 347.4959 068.3142 14.00199950338689
0 FENGYUN 1C DEB
1 31300U 99025BPJ 13292.32951987  .00001739  00000-0  11856-2 0   368
2 31300 099.5670 060.6010 0068855 336.3103 050.9353 14.00214361339247
0 FENGYUN 1C DEB
1 31300U 99025BPJ 13295.04999946  .00002095  00000-0  14218-2 0   379
2 31300 099.5666 063.4458 0068954 328.7602 084.4663 14.00224764339624
